[Satellite]
VERSION=1.1
NAME=SL-16 R/B
NICKNAME=SL-16 R/B
TLE1=1 31793U 07029B   22342.49061068  .00000240  00000+0  15008-3 0  9990
TLE2=2 31793  70.9749 147.2445 0002517 282.7648 108.6144 14.14500707797477
STATUS=0
